start=new Date('2022-02-09T00:00:00.000Z').valueOf();
sats=[{"PERIOD":"95.593","BSTAR":"0.00016372000000","REV_AT_EPOCH":"10035","MEAN_MOTION_DDOT":"0.0000000000000","COUNTRY_CODE":"US","MEAN_MOTION":"15.06387195","GP_ID":"195577750","OBJECT_ID":"2020-025AZ","PERIAPSIS":"546.114","RA_OF_ASC_NODE":"284.8580","REF_FRAME":"TEME","TIME_SYSTEM":"UTC","DECAY_DATE":null,"MEAN_ELEMENT_THEORY":"SGP4","OBJECT_NAME":"STARLINK-1331","SITE":"AFETR","EPOCH":"2022-02-08T19:58:59.810016","LAUNCH_DATE":"2020-04-22","TLE_LINE1":"1 45578U 20025AZ  22039.83263669  .00002157  00000-0  16372-3 0  9994","NORAD_CAT_ID":"45578","EPHEMERIS_TYPE":"0","ARG_OF_PERICENTER":"63.5882","FILE":"3295233","INCLINATION":"53.0532","MEAN_ANOMALY":"296.5275","OBJECT_TYPE":"PAYLOAD","ECCENTRICITY":"0.00016450","CENTER_NAME":"EARTH","ELEMENT_SET_NO":"999","APOAPSIS":"548.392","RCS_SIZE":"LARGE","SEMIMAJOR_AXIS":"6925.388","MEAN_MOTION_DOT":"0.00002157","CLASSIFICATION_TYPE":"U","TLE_LINE2":"2 45578  53.0532 284.8580 0001645  63.5882 296.5275 15.06387195100352"},{"ECCENTRICITY":"0.00014990","OBJECT_TYPE":"PAYLOAD","CENTER_NAME":"EARTH","ELEMENT_SET_NO":"999","SEMIMAJOR_AXIS":"6925.370","CLASSIFICATION_TYPE":"U","MEAN_MOTION_DOT":"0.00002389","APOAPSIS":"548.273","RCS_SIZE":"LARGE","TLE_LINE2":"2 45579  53.0531 247.2605 0001499 113.3762 246.7385 15.06393096101437","TIME_SYSTEM":"UTC","RA_OF_ASC_NODE":"247.2605","REF_FRAME":"TEME","MEAN_ELEMENT_THEORY":"SGP4","OBJECT_NAME":"STARLINK-1332","DECAY_DATE":null,"LAUNCH_DATE":"2020-04-22","TLE_LINE1":"1 45579U 20025BA  22039.29353319  .00002389  00000-0  17924-3 0  9998","EPHEMERIS_TYPE":"0","NORAD_CAT_ID":"45579","EPOCH":"2022-02-08T07:02:41.267616","SITE":"AFETR","INCLINATION":"53.0531","MEAN_ANOMALY":"246.7385","ARG_OF_PERICENTER":"113.3762","FILE":"3295096","PERIAPSIS":"546.197","OBJECT_ID":"2020-025BA","PERIOD":"95.593","MEAN_MOTION_DDOT":"0.0000000000000","REV_AT_EPOCH":"10143","BSTAR":"0.00017924000000","COUNTRY_CODE":"US","MEAN_MOTION":"15.06393096","GP_ID":"195545846"},{"PERIAPSIS":"546.217","OBJECT_ID":"2020-025BB","COUNTRY_CODE":"US","MEAN_MOTION":"15.06378139","GP_ID":"195546599","PERIOD":"95.594","REV_AT_EPOCH":"10075","MEAN_MOTION_DDOT":"0.0000000000000","BSTAR":"0.00074192000000","SEMIMAJOR_AXIS":"6925.416","CLASSIFICATION_TYPE":"U","MEAN_MOTION_DOT":"0.00010780","APOAPSIS":"548.344","RCS_SIZE":"LARGE","TLE_LINE2":"2 45580  53.0529 296.6008 0001536  60.1340 299.9801 15.06378139100752","ECCENTRICITY":"0.00015360","OBJECT_TYPE":"PAYLOAD","CENTER_NAME":"EARTH","ELEMENT_SET_NO":"999","TLE_LINE1":"1 45580U 20025BB  22039.44101231  .00010780  00000-0  74192-3 0  9995","LAUNCH_DATE":"2020-04-22","EPHEMERIS_TYPE":"0","NORAD_CAT_ID":"45580","EPOCH":"2022-02-08T10:35:03.463584","SITE":"AFETR","INCLINATION":"53.0529","MEAN_ANOMALY":"299.9801","ARG_OF_PERICENTER":"60.1340","FILE":"3295096","TIME_SYSTEM":"UTC","RA_OF_ASC_NODE":"296.6008","REF_FRAME":"TEME","OBJECT_NAME":"STARLINK-1333","MEAN_ELEMENT_THEORY":"SGP4","DECAY_DATE":null},{"INCLINATION":"53.0532","MEAN_ANOMALY":"301.2352","ARG_OF_PERICENTER":"58.8782","FILE":"3295096","TLE_LINE1":"1 45581U 20025BC  22039.37927809  .00005195  00000-0  36764-3 0  9992","LAUNCH_DATE":"2020-04-22","NORAD_CAT_ID":"45581","EPHEMERIS_TYPE":"0","EPOCH":"2022-02-08T09:06:09.626976","SITE":"AFETR","MEAN_ELEMENT_THEORY":"SGP4","OBJECT_NAME":"STARLINK-1335","DECAY_DATE":null,"TIME_SYSTEM":"UTC","RA_OF_ASC_NODE":"286.8826","REF_FRAME":"TEME","TLE_LINE2":"2 45581  53.0532 286.8826 0001481  58.8782 301.2352 15.06377269100884","SEMIMAJOR_AXIS":"6925.418","MEAN_MOTION_DOT":"0.00005195","CLASSIFICATION_TYPE":"U","RCS_SIZE":"LARGE","APOAPSIS":"548.309","CENTER_NAME":"EARTH","ELEMENT_SET_NO":"999","OBJECT_TYPE":"PAYLOAD","ECCENTRICITY":"0.00014810","GP_ID":"195546837","COUNTRY_CODE":"US","MEAN_MOTION":"15.06377269","MEAN_MOTION_DDOT":"0.0000000000000","REV_AT_EPOCH":"10088","BSTAR":"0.00036764000000","PERIOD":"95.594","PERIAPSIS":"546.258","OBJECT_ID":"2020-025BC"},{"PERIOD":"95.593","MEAN_MOTION_DDOT":"0.0000000000000","REV_AT_EPOCH":"10083","BSTAR":"-0.00012514000000","MEAN_MOTION":"15.06379335","COUNTRY_CODE":"US","GP_ID":"195545600","PERIAPSIS":"546.110","OBJECT_ID":"2020-025BD","TIME_SYSTEM":"UTC","REF_FRAME":"TEME","RA_OF_ASC_NODE":"288.2677","MEAN_ELEMENT_THEORY":"SGP4","OBJECT_NAME":"STARLINK-1337","DECAY_DATE":null,"EPHEMERIS_TYPE":"0","NORAD_CAT_ID":"45582","TLE_LINE1":"1 45582U 20025BD  22039.06964457 -.00002144  00000-0 -12514-3 0  9999","LAUNCH_DATE":"2020-04-22","SITE":"AFETR","EPOCH":"2022-02-08T01:40:17.290848","MEAN_ANOMALY":"299.5901","INCLINATION":"53.0534","FILE":"3295096","ARG_OF_PERICENTER":"60.5256","ECCENTRICITY":"0.00016850","OBJECT_TYPE":"PAYLOAD","ELEMENT_SET_NO":"999","CENTER_NAME":"EARTH","MEAN_MOTION_DOT":"-0.00002144","CLASSIFICATION_TYPE":"U","SEMIMAJOR_AXIS":"6925.412","APOAPSIS":"548.444","RCS_SIZE":"LARGE","TLE_LINE2":"2 45582  53.0534 288.2677 0001685  60.5256 299.5901 15.06379335100839"},{"CLASSIFICATION_TYPE":"U","MEAN_MOTION_DOT":"0.00000764","SEMIMAJOR_AXIS":"6925.386","RCS_SIZE":"LARGE","APOAPSIS":"548.456","TLE_LINE2":"2 45583  53.0541 286.8608 0001739  49.8903 310.2238 15.06387633100884","OBJECT_TYPE":"PAYLOAD","ECCENTRICITY":"0.00017390","ELEMENT_SET_NO":"999","CENTER_NAME":"EARTH","EPHEMERIS_TYPE":"0","NORAD_CAT_ID":"45583","TLE_LINE1":"1 45583U 20025BE  22039.38294659  .00000764  00000-0  70211-4 0  9998","LAUNCH_DATE":"2020-04-22","SITE":"AFETR","EPOCH":"2022-02-08T09:11:26.585376","MEAN_ANOMALY":"310.2238","INCLINATION":"53.0541","FILE":"3295096","ARG_OF_PERICENTER":"49.8903","TIME_SYSTEM":"UTC","REF_FRAME":"TEME","RA_OF_ASC_NODE":"286.8608","OBJECT_NAME":"STARLINK-1340","MEAN_ELEMENT_THEORY":"SGP4","DECAY_DATE":null,"PERIAPSIS":"546.047","OBJECT_ID":"2020-025BE","MEAN_MOTION":"15.06387633","COUNTRY_CODE":"US","GP_ID":"195545346","PERIOD":"95.593","REV_AT_EPOCH":"10088","MEAN_MOTION_DDOT":"0.0000000000000","BSTAR":"0.00007021100000"},{"COUNTRY_CODE":"US","MEAN_MOTION":"15.06384168","GP_ID":"195577583","PERIOD":"95.593","BSTAR":"0.00016862000000","MEAN_MOTION_DDOT":"0.0000000000000","REV_AT_EPOCH":"10035","OBJECT_ID":"2020-025BF","PERIAPSIS":"546.189","EPOCH":"2022-02-08T20:04:18.374592","SITE":"AFETR","LAUNCH_DATE":"2020-04-22","TLE_LINE1":"1 45584U 20025BF  22039.83632378  .00002230  00000-0  16862-3 0  9994","EPHEMERIS_TYPE":"0","NORAD_CAT_ID":"45584","ARG_OF_PERICENTER":"74.6433","FILE":"3295223","INCLINATION":"53.0541","MEAN_ANOMALY":"285.4727","RA_OF_ASC_NODE":"284.8199","REF_FRAME":"TEME","TIME_SYSTEM":"UTC","DECAY_DATE":null,"MEAN_ELEMENT_THEORY":"SGP4","OBJECT_NAME":"STARLINK-1343","APOAPSIS":"548.335","RCS_SIZE":"LARGE","SEMIMAJOR_AXIS":"6925.397","CLASSIFICATION_TYPE":"U","MEAN_MOTION_DOT":"0.00002230","TLE_LINE2":"2 45584  53.0541 284.8199 0001549  74.6433 285.4727 15.06384168100359","ECCENTRICITY":"0.00015490","OBJECT_TYPE":"PAYLOAD","CENTER_NAME":"EARTH","ELEMENT_SET_NO":"999"},{"PERIAPSIS":"546.057","OBJECT_ID":"2020-025BH","PERIOD":"95.593","REV_AT_EPOCH":"10087","MEAN_MOTION_DDOT":"0.0000000000000","BSTAR":"0.00018753000000","COUNTRY_CODE":"US","MEAN_MOTION":"15.06382674","GP_ID":"195546337","OBJECT_TYPE":"PAYLOAD","ECCENTRICITY":"0.00017470","CENTER_NAME":"EARTH","ELEMENT_SET_NO":"999","SEMIMAJOR_AXIS":"6925.402","MEAN_MOTION_DOT":"0.00002511","CLASSIFICATION_TYPE":"U","APOAPSIS":"548.477","RCS_SIZE":"LARGE","TLE_LINE2":"2 45586  53.0558 286.8151 0001747  57.9030 302.2128 15.06382674100876","TIME_SYSTEM":"UTC","RA_OF_ASC_NODE":"286.8151","REF_FRAME":"TEME","OBJECT_NAME":"STARLINK-1347","MEAN_ELEMENT_THEORY":"SGP4","DECAY_DATE":null,"TLE_LINE1":"1 45586U 20025BH  22039.39400709  .00002511  00000-0  18753-3 0  9991","LAUNCH_DATE":"2020-04-22","NORAD_CAT_ID":"45586","EPHEMERIS_TYPE":"0","SITE":"AFETR","EPOCH":"2022-02-08T09:27:22.212576","INCLINATION":"53.0558","MEAN_ANOMALY":"302.2128","ARG_OF_PERICENTER":"57.9030","FILE":"3295096"},{"BSTAR":"-0.00000081556000","REV_AT_EPOCH":"10084","MEAN_MOTION_DDOT":"0.0000000000000","PERIOD":"95.593","GP_ID":"195545100","COUNTRY_CODE":"US","MEAN_MOTION":"15.06384649","OBJECT_ID":"2020-025BJ","PERIAPSIS":"546.108","DECAY_DATE":null,"MEAN_ELEMENT_THEORY":"SGP4","OBJECT_NAME":"STARLINK-1349","RA_OF_ASC_NODE":"288.1351","REF_FRAME":"TEME","TIME_SYSTEM":"UTC","ARG_OF_PERICENTER":"65.1958","FILE":"3295096","INCLINATION":"53.0531","MEAN_ANOMALY":"294.9204","EPOCH":"2022-02-08T02:22:44.430240","SITE":"AFETR","TLE_LINE1":"1 45587U 20025BJ  22039.09912535 -.00000294  00000-0 -81556-6 0  9996","LAUNCH_DATE":"2020-04-22","EPHEMERIS_TYPE":"0","NORAD_CAT_ID":"45587","CENTER_NAME":"EARTH","ELEMENT_SET_NO":"999","OBJECT_TYPE":"PAYLOAD","ECCENTRICITY":"0.00016650","TLE_LINE2":"2 45587  53.0531 288.1351 0001665  65.1958 294.9204 15.06384649100847","RCS_SIZE":"LARGE","APOAPSIS":"548.414","SEMIMAJOR_AXIS":"6925.396","MEAN_MOTION_DOT":"-0.00000294","CLASSIFICATION_TYPE":"U"},{"PERIOD":"95.593","BSTAR":"0.00006065900000","REV_AT_EPOCH":"10088","MEAN_MOTION_DDOT":"0.0000000000000","COUNTRY_CODE":"US","MEAN_MOTION":"15.06384270","GP_ID":"195545847","OBJECT_ID":"2020-025BK","PERIAPSIS":"546.244","RA_OF_ASC_NODE":"286.7594","REF_FRAME":"TEME","TIME_SYSTEM":"UTC","DECAY_DATE":null,"MEAN_ELEMENT_THEORY":"SGP4","OBJECT_NAME":"STARLINK-1360","EPOCH":"2022-02-08T09:48:36.266976","SITE":"AFETR","LAUNCH_DATE":"2020-04-22","TLE_LINE1":"1 45588U 20025BK  22039.40875309  .00000622  00000-0  60659-4 0  9991","NORAD_CAT_ID":"45588","EPHEMERIS_TYPE":"0","ARG_OF_PERICENTER":"73.3501","FILE":"3295096","INCLINATION":"53.0551","MEAN_ANOMALY":"286.7649","OBJECT_TYPE":"PAYLOAD","ECCENTRICITY":"0.00014690","CENTER_NAME":"EARTH","ELEMENT_SET_NO":"999","APOAPSIS":"548.279","RCS_SIZE":"LARGE","SEMIMAJOR_AXIS":"6925.397","CLASSIFICATION_TYPE":"U","MEAN_MOTION_DOT":"0.00000622","TLE_LINE2":"2 45588  53.0551 286.7594 0001469  73.3501 286.7649 15.06384270100886"}];
